NORAD_CAT_ID,OBJECT_NAME,OBJECT_TYPE,EPOCH,MEAN_MOTION,ECCENTRICITY,INCLINATION,RA_OF_ASC_NODE,ARG_OF_PERICENTER,MEAN_ANOMALY,BSTAR,MEAN_MOTION_DOT,MEAN_MOTION_DDOT,TLE_LINE0,TLE_LINE1,TLE_LINE2,SEMIMAJOR_AXIS,PERIOD,APOGEE,PERIGEE,DECAYED
49460.0,STARLINK-3140,PAYLOAD,2022-12-10 17:56:56,15.088704000000002,0.0002906,53.217,138.5504,53.6695,306.4565,-0.00047483,-7.845e-05,0.0,0 STARLINK-3140,1 49460U 21104BE  22344.74787508 -.00007845  00000-0 -47483-3 0  9997,2 49460  53.2170 138.5504 0002906  53.6695 306.4565 15.08870400 60974,6917.7869999999975,95.436,541.663,537.6419999999998,0.0
49460.0,STARLINK-3140,PAYLOAD,2022-12-11 09:50:43,15.08955339,0.0002394,53.2159,135.577,333.4083,26.6786,-0.0011778,-0.00019044,0.0,0 STARLINK-3140,1 49460U 21104BE  22345.41022964 -.00019044  00000-0 -11778-2 0  9991,2 49460  53.2159 135.5770 0002394 333.4083  26.6786 15.08955339 61077,6917.528,95.43,541.049,537.737,0.0
49460.0,STARLINK-3140,PAYLOAD,2022-12-11 17:47:43,15.08835624,0.0002661,53.2163,134.0915,68.05,292.0775,0.0002852,4.253e-05,0.0,0 STARLINK-3140,1 49460U 21104BE  22345.74147866  .00004253  00000-0  28520-3 0  9994,2 49460  53.2163 134.0915 0002661  68.0500 292.0775 15.08835624 61126,6917.894,95.438,541.6,537.918,0.0
49460.0,STARLINK-3140,PAYLOAD,2022-12-11 22:33:53,15.08835226,0.0002519,53.2163,133.1993,63.5846,296.5404,0.00035416,5.352e-05,0.0,0 STARLINK-3140,1 49460U 21104BE  22345.94019861  .00005352  00000-0  35416-3 0  9992,2 49460  53.2163 133.1993 0002519  63.5846 296.5404 15.08835226 60065,6917.895,95.438,541.503,538.0169999999998,0.0
49460.0,STARLINK-3140,PAYLOAD,2022-12-13 19:04:40,15.08850102,0.0002788,53.2172,124.8647,56.3135,303.8123,-1.2322e-05,-4.85e-06,0.0,0 STARLINK-3140,1 49460U 21104BE  22347.79491314 -.00000485  00000-0 -12322-4 0  9990,2 49460  53.2172 124.8647 0002788  56.3135 303.8123 15.08850102 61439,6917.85,95.437,541.643,537.786,0.0
49460.0,STARLINK-3140,PAYLOAD,2022-12-14 09:23:08,15.08841634,0.0002221,53.2181,122.19,42.5376,317.5788,3.6438e-05,2.92e-06,0.0,0 STARLINK-3140,1 49460U 21104BE  22348.39107630  .00000292  00000-0  36438-4 0  9990,2 49460  53.2181 122.1900 0002221  42.5376 317.5788 15.08841634 61527,6917.875,95.437,541.2769999999998,538.2040000000002,0.0
49460.0,STARLINK-3140,PAYLOAD,2022-12-14 15:44:41,15.08853461,0.0002285,53.2155,120.9983,44.1454,315.972,-0.00013574,-2.449e-05,0.0,0 STARLINK-3140,1 49460U 21104BE  22348.65603940 -.00002449  00000-0 -13574-3 0  9997,2 49460  53.2155 120.9983 0002285  44.1454 315.9720 15.08853461 60472,6917.839,95.437,541.285,538.124,0.0
49460.0,STARLINK-3140,PAYLOAD,2022-12-15 14:00:06,15.08756429,0.0002917,53.2156,116.834,50.133,309.9918,0.0010909,0.00017077,0.0,0 STARLINK-3140,1 49460U 21104BE  22349.58340455  .00017077  00000-0  10909-2 0  9998,2 49460  53.2156 116.8340 0002917  50.1330 309.9918 15.08756429 60610,6918.136,95.443,542.019,537.9830000000002,0.0
49460.0,STARLINK-3140,PAYLOAD,2022-12-15 15:35:28,15.08854929,0.0002427,53.2159,116.5394,46.8124,313.3071,-0.00017387,-3.056e-05,0.0,0 STARLINK-3140,1 49460U 21104BE  22349.64963336 -.00003056  00000-0 -17387-3 0  9996,2 49460  53.2159 116.5394 0002427  46.8124 313.3071 15.08854929 61713,6917.835,95.437,541.379,538.021,0.0
49460.0,STARLINK-3140,PAYLOAD,2022-12-15 18:46:14,15.08842772,0.000266,53.2164,115.9452,51.6203,308.5028,3.9107e-05,3.34e-06,0.0,0 STARLINK-3140,1 49460U 21104BE  22349.78211351  .00000334  00000-0  39107-4 0  9993,2 49460  53.2164 115.9452 0002660  51.6203 308.5028 15.08842772 60640,6917.871999999999,95.437,541.577,537.8969999999998,0.0
49460.0,STARLINK-3140,PAYLOAD,2022-12-16 01:07:46,15.08862542,0.0002486,53.2169,114.7558,50.5834,309.5378,-0.00016077,-2.848e-05,0.0,0 STARLINK-3140,1 49460U 21104BE  22350.04706417 -.00002848  00000-0 -16077-3 0  9990,2 49460  53.2169 114.7558 0002486  50.5834 309.5378 15.08862542 61774,6917.811,95.436,541.396,537.957,0.0
49460.0,STARLINK-3140,PAYLOAD,2022-12-16 13:50:52,15.08838717,0.0002455,53.217,112.3772,52.2667,307.8547,0.00013233,1.818e-05,0.0,0 STARLINK-3140,1 49460U 21104BE  22350.57699219  .00001818  00000-0  13233-3 0  9994,2 49460  53.2170 112.3772 0002455  52.2667 307.8547 15.08838717 61852,6917.884,95.438,541.448,538.0509999999998,0.0
49460.0,STARLINK-3140,PAYLOAD,2022-12-16 18:37:02,15.08829976,0.0002472,53.2168,111.4851,48.0362,312.0841,4.2149e-05,3.82e-06,0.0,0 STARLINK-3140,1 49460U 21104BE  22350.77572135  .00000382  00000-0  42149-4 0  9997,2 49460  53.2168 111.4851 0002472  48.0362 312.0841 15.08829976 61886,6917.911,95.438,541.486,538.066,0.0
49460.0,STARLINK-3140,PAYLOAD,2022-12-17 12:06:16,15.088344400000002,0.0002455,53.2173,108.2139,48.1215,311.9986,1.9135e-05,1.6e-07,0.0,0 STARLINK-3140,1 49460U 21104BE  22351.50436300  .00000016  00000-0  19135-4 0  9995,2 49460  53.2173 108.2139 0002455  48.1215 311.9986 15.08834440 60906,6917.897,95.438,541.461,538.064,0.0
49460.0,STARLINK-3140,PAYLOAD,2022-12-17 16:52:26,15.08836408,0.000249,53.2172,107.3218,48.0168,312.1036,3.995e-05,3.47e-06,0.0,0 STARLINK-3140,1 49460U 21104BE  22351.70308228  .00000347  00000-0  39950-4 0  9998,2 49460  53.2172 107.3218 0002490  48.0168 312.1036 15.08836408 60936,6917.891,95.438,541.479,538.034,0.0
49460.0,STARLINK-3140,PAYLOAD,2022-12-18 00:49:21,15.08841141,0.0002544,53.2173,105.8351,47.8258,312.295,4.9954e-05,5.07e-06,0.0,0 STARLINK-3140,1 49460U 21104BE  22352.03427988  .00000507  00000-0  49954-4 0  9993,2 49460  53.2173 105.8351 0002544  47.8258 312.2950 15.08841141 62078,6917.877,95.437,541.502,537.982,0.0
49460.0,STARLINK-3140,PAYLOAD,2022-12-18 11:57:04,15.08834202,0.000255,53.2185,103.7536,47.6887,312.4321,5.2743e-05,5.51e-06,0.0,0 STARLINK-3140,1 49460U 21104BE  22352.49796578  .00000551  00000-0  52743-4 0  9996,2 49460  53.2185 103.7536 0002550  47.6887 312.4321 15.08834202 62148,6917.898,95.438,541.5269999999998,537.999,0.0
49460.0,STARLINK-3140,PAYLOAD,2022-12-18 15:07:50,15.08836791,0.0002569,53.2186,103.1596,49.5479,310.5737,1.1643e-05,-1.03e-06,0.0,0 STARLINK-3140,1 49460U 21104BE  22352.63044536 -.00000103  00000-0  11643-4 0  9990,2 49460  53.2186 103.1596 0002569  49.5479 310.5737 15.08836791 61073,6917.89,95.438,541.5319999999998,537.9780000000002,0.0
49460.0,STARLINK-3140,PAYLOAD,2022-12-19 07:01:41,15.08837779,0.0002421,53.2181,100.1851,44.9886,315.1302,0.00011904,1.607e-05,0.0,0 STARLINK-3140,1 49460U 21104BE  22353.29284465  .00001607  00000-0  11904-3 0  9998,2 49460  53.2181 100.1851 0002421  44.9886 315.1302 15.08837779 61174,6917.887,95.438,541.427,538.077,0.0
49460.0,STARLINK-3140,PAYLOAD,2022-12-19 16:34:00,15.08850255,0.0002458,53.2156,98.4002,40.5973,319.5202,0.00032374,4.869e-05,0.0,0 STARLINK-3140,1 49460U 21104BE  22353.69027842  .00004869  00000-0  32374-3 0  9993,2 49460  53.2156  98.4002 0002458  40.5973 319.5202 15.08850255 61230,6917.849,95.437,541.414,538.014,0.0
49460.0,STARLINK-3140,PAYLOAD,2022-12-20 13:14:00,15.08853602,0.0002307,53.2168,94.5348,37.0798,323.0353,0.00030114,4.509e-05,0.0,0 STARLINK-3140,1 49460U 21104BE  22354.55139339  .00004509  00000-0  30114-3 0  9995,2 49460  53.2168  94.5348 0002307  37.0798 323.0353 15.08853602 61362,6917.839,95.437,541.3,538.1080000000002,0.0
49460.0,STARLINK-3140,PAYLOAD,2022-12-20 16:24:46,15.08853409,0.0002294,53.2181,93.9413,33.5205,326.5932,0.00024747,3.654e-05,0.0,0 STARLINK-3140,1 49460U 21104BE  22354.68387242  .00003654  00000-0  24747-3 0  9992,2 49460  53.2181  93.9413 0002294  33.5205 326.5932 15.08853409 62471,6917.839,95.437,541.2909999999998,538.117,0.0
49460.0,STARLINK-3140,PAYLOAD,2022-12-21 13:04:48,15.08829127,0.0002253,53.216,90.0744,30.7186,329.3938,-0.00013337,-2.410000000000001e-05,0.0,0 STARLINK-3140,1 49460U 21104BE  22355.54500625 -.00002410  00000-0 -13337-3 0  9994,2 49460  53.2160  90.0744 0002253  30.7186 329.3938 15.08829127 62607,6917.9140000000025,95.438,541.337,538.22,0.0
49460.0,STARLINK-3140,PAYLOAD,2022-12-22 11:20:11,15.08845766,0.0002277,53.2166,85.9115,28.4854,331.6262,0.00013745,1.9e-05,0.0,0 STARLINK-3140,1 49460U 21104BE  22356.47235942  .00001900  00000-0  13745-3 0  9998,2 49460  53.2166  85.9115 0002277  28.4854 331.6262 15.08845766 62748,6917.863,95.437,541.303,538.153,0.0
49460.0,STARLINK-3140,PAYLOAD,2022-12-22 16:06:21,15.08837553,0.0002444,53.2168,85.0194,31.2428,328.8709,0.0001678,2.383e-05,0.0,0 STARLINK-3140,1 49460U 21104BE  22356.67108667  .00002383  00000-0  16780-3 0  9991,2 49460  53.2168  85.0194 0002444  31.2428 328.8709 15.08837553 62775,6917.888000000001,95.438,541.444,538.062,0.0
49460.0,STARLINK-3140,PAYLOAD,2022-12-23 12:46:22,15.08837671,0.0002369,53.217,81.1543,30.2224,329.8904,-2.0805e-05,-6.19e-06,0.0,0 STARLINK-3140,1 49460U 21104BE  22357.53220932 -.00000619  00000-0 -20805-4 0  9993,2 49460  53.2170  81.1543 0002369  30.2224 329.8904 15.08837671 61815,6917.888000000001,95.438,541.391,538.114,0.0
49460.0,STARLINK-3140,PAYLOAD,2022-12-23 17:32:32,15.08838342,0.0002353,53.2169,80.2621,27.6925,332.4193,0.00020737,3.013e-05,0.0,0 STARLINK-3140,1 49460U 21104BE  22357.73093256  .00003013  00000-0  20737-3 0  9994,2 49460  53.2169  80.2621 0002353  27.6925 332.4193 15.08838342 61840,6917.885,95.438,541.378,538.123,0.0
49460.0,STARLINK-3140,PAYLOAD,2022-12-23 22:18:41,15.08842222,0.0002433,53.217,79.3703,27.9687,332.1435,0.0004572,6.996e-05,0.0,0 STARLINK-3140,1 49460U 21104BE  22357.92965212  .00006996  00000-0  45720-3 0  9997,2 49460  53.2170  79.3703 0002433  27.9687 332.1435 15.08842222 62961,6917.874,95.437,541.422,538.055,0.0
49460.0,STARLINK-3140,PAYLOAD,2022-12-24 12:37:09,15.08852876,0.0002477,53.2169,76.6938,35.7183,324.3974,0.00086435,0.000135,0.0,0 STARLINK-3140,1 49460U 21104BE  22358.52580953  .00013500  00000-0  86435-3 0  9996,2 49460  53.2169  76.6938 0002477  35.7183 324.3974 15.08852876 61961,6917.840999999999,95.437,541.42,537.992,0.0
